IRIDIUM 155             
1 43573U 18061E   21249.75859270  .00000013  00000-0 -25656-5 0  9993
2 43573  86.3926  65.7144 0001592  81.0764 279.0612 14.34216987163325
IRIDIUM 154             
1 43574U 18061F   21249.80932932  .00000011  00000-0 -30209-5 0  9995
2 43574  86.3930  65.7436 0002271  89.3406 270.8050 14.34217134163380
IRIDIUM 163             
1 43575U 18061G   21249.79028677  .00000017  00000-0 -10798-5 0  9993
2 43575  86.3928  65.7201 0002096 103.6641 256.4788 14.34218199163351
IRIDIUM 156             
1 43576U 18061H   21249.76492049  .00000017  00000-0 -10814-5 0  9998
2 43576  86.3928  65.7358 0001726  96.7813 263.3579 14.34218490163345
IRIDIUM 164             
1 43577U 18061J   21249.81567119  .00000016  00000-0 -13652-5 0  9998
2 43577  86.3929  65.7283 0002219  92.7402 267.4047 14.34216930163399
IRIDIUM 159             
1 43578U 18061K   21249.78397850  .00000016  00000-0 -11976-5 0  9995
2 43578  86.3927  65.7151 0002186  90.0238 270.1208 14.34216817163353
IRIDIUM 180             
1 43922U 19002A   21249.29508546  .00000073  00000-0  18936-4 0  9990
2 43922  86.4023   2.7877 0003113 100.0584 260.0963 14.34219341138899
IRIDIUM 176             
1 43923U 19002B   21249.83577660  .00000184  00000-0  25283-4 0  9990
2 43923  86.6157   2.5956 0002387  92.2685 267.8805 14.72250587142605
IRIDIUM 168             
1 43924U 19002C   21249.77712013  .00000080  00000-0  21574-4 0  9991
2 43924  86.4026   2.6145 0002463  93.2367 266.9111 14.34218331138944
IRIDIUM 173             
1 43925U 19002D   21249.62490175  .00000078  00000-0  20838-4 0  9997
2 43925  86.4023   2.6380 0002385  95.3859 264.7609 14.34218136138902
IRIDIUM 169             
1 43926U 19002E   21249.65437619  .00000086  00000-0  21671-4 0  9990
2 43926  86.4241  34.2052 0003987 351.1498   8.9629 14.38603710139410
IRIDIUM 172             
1 43927U 19002F   21249.54878357  .00000083  00000-0  22478-4 0  9990
2 43927  86.4023   2.6724 0002480  95.5608 264.5871 14.34219551138907
IRIDIUM 175             
1 43928U 19002G   21249.55771485  .00000198  00000-0  27456-4 0  9994
2 43928  86.6159   2.5340 0002644 104.6633 255.4877 14.72254613142556
IRIDIUM 171             
1 43929U 19002H   21249.73907394  .00000081  00000-0  21995-4 0  9998
2 43929  86.4032   2.7054 0002448  92.7731 267.3745 14.34217997138921
IRIDIUM 170             
1 43930U 19002J   21249.57010729  .00000190  00000-0  26167-4 0  9996
2 43930  86.6156   2.7127 0002600  93.7079 266.4436 14.72254014142575
IRIDIUM 167             
1 43931U 19002K   21249.66293315  .00000080  00000-0  21655-4 0  9996
2 43931  86.4023   2.6316 0002914  97.0250 263.1278 14.34220277138915
